NORAD_CAT_ID,OBJECT_NAME,OBJECT_TYPE,EPOCH,MEAN_MOTION,ECCENTRICITY,INCLINATION,RA_OF_ASC_NODE,ARG_OF_PERICENTER,MEAN_ANOMALY,BSTAR,MEAN_MOTION_DOT,MEAN_MOTION_DDOT,TLE_LINE0,TLE_LINE1,TLE_LINE2,SEMIMAJOR_AXIS,PERIOD,APOGEE,PERIGEE,DECAYED
52662.0,STARLINK-4044,PAYLOAD,2024-02-24 22:23:29,15.0884492,0.0001092,53.2157,252.9759,99.9571,260.1545,0.00047038,7.207e-05,0.0,0 STARLINK-4044,1 52662U 22053G   24055.93298434  .00007207  00000-0  47038-3 0  9992,2 52662  53.2157 252.9759 0001092  99.9571 260.1545 15.08844920 98761,6917.865,95.437,540.486,538.975,0.0
52662.0,STARLINK-4044,PAYLOAD,2024-02-25 12:41:57,15.08847687,0.0001232,53.2153,250.3015,79.0023,281.1107,-3.1376e-05,-7.87e-06,0.0,0 STARLINK-4044,1 52662U 22053G   24056.52914170 -.00000787  00000-0 -31376-4 0  9997,2 52662  53.2153 250.3015 0001232  79.0023 281.1107 15.08847687 98851,6917.857,95.437,540.574,538.87,0.0
52662.0,STARLINK-4044,PAYLOAD,2024-02-25 19:03:30,15.08845922,0.0001051,53.2123,249.1086,91.5574,268.5538,0.00016798,2.387e-05,0.0,0 STARLINK-4044,1 52662U 22053G   24056.79409982  .00002387  00000-0  16798-3 0  9992,2 52662  53.2123 249.1086 0001051  91.5574 268.5538 15.08845922 98892,6917.862,95.437,540.454,539.0,0.0
52662.0,STARLINK-4044,PAYLOAD,2024-02-26 18:54:18,15.08836568,0.0001006,53.2145,244.6512,71.7507,288.3595,1.5806e-05,-3.6e-07,0.0,0 STARLINK-4044,1 52662U 22053G   24057.78770952 -.00000036  00000-0  15806-4 0  9990,2 52662  53.2145 244.6512 0001006  71.7507 288.3595 15.08836568 99043,6917.891,95.438,540.452,539.06,0.0
52662.0,STARLINK-4044,PAYLOAD,2024-02-26 22:05:04,15.08838162,9.54e-05,53.2139,244.0552,68.571,291.5384,4.7042e-05,4.61e-06,0.0,0 STARLINK-4044,1 52662U 22053G   24057.92018899  .00000461  00000-0  47042-4 0  9999,2 52662  53.2139 244.0552 0000954  68.5710 291.5384 15.08838162 99061,6917.886,95.438,540.411,539.091,0.0
52662.0,STARLINK-4044,PAYLOAD,2024-02-27 12:23:32,15.08838747,9.15e-05,53.2155,241.378,84.5807,275.529,0.00012489,1.7e-05,0.0,0 STARLINK-4044,1 52662U 22053G   24058.51634996  .00001700  00000-0  12489-3 0  9990,2 52662  53.2155 241.3780 0000915  84.5807 275.5290 15.08838747 99151,6917.884,95.438,540.382,539.116,0.0
52662.0,STARLINK-4044,PAYLOAD,2024-02-27 21:55:51,15.08848835,9.23e-05,53.2145,239.5925,74.9152,285.1943,0.00020011,2.899e-05,0.0,0 STARLINK-4044,1 52662U 22053G   24058.91378530  .00002899  00000-0  20011-3 0  9993,2 52662  53.2145 239.5925 0000923  74.9152 285.1943 15.08848835 99213,6917.853,95.437,540.357,539.08,0.0
52662.0,STARLINK-4044,PAYLOAD,2024-02-28 12:14:19,15.08841337,9.78e-05,53.2152,236.9152,75.5184,284.5916,0.000203,2.945e-05,0.0,0 STARLINK-4044,1 52662U 22053G   24059.50994950  .00002945  00000-0  20300-3 0  9992,2 52662  53.2152 236.9152 0000978  75.5184 284.5916 15.08841337 99309,6917.876,95.437,540.418,539.065,0.0
52662.0,STARLINK-4044,PAYLOAD,2024-02-28 18:35:51,15.08846997,9.87e-05,53.2158,235.7284,72.971,287.139,0.00021485,3.134e-05,0.0,0 STARLINK-4044,1 52662U 22053G   24059.77490647  .00003134  00000-0  21485-3 0  9991,2 52662  53.2158 235.7284 0000987  72.9710 287.1390 15.08846997 99340,6917.859,95.437,540.407,539.041,0.0
52662.0,STARLINK-4044,PAYLOAD,2024-02-29 12:05:06,15.08843839,0.0001004,53.2157,232.4571,73.5153,286.595,4.1739e-05,3.77e-06,0.0,0 STARLINK-4044,1 52662U 22053G   24060.50354616  .00000377  00000-0  41739-4 0  9990,2 52662  53.2157 232.4571 0001004  73.5153 286.5950 15.08843839 99450,6917.869,95.437,540.428,539.039,0.0
52662.0,STARLINK-4044,PAYLOAD,2024-02-29 18:26:38,15.08845664,9.9e-05,53.2161,231.268,74.656,285.4542,5.4766e-05,5.84e-06,0.0,0 STARLINK-4044,1 52662U 22053G   24060.76850422  .00000584  00000-0  54766-4 0  9998,2 52662  53.2161 231.2680 0000990  74.6560 285.4542 15.08845664 99497,6917.863,95.437,540.413,539.043,0.0
52662.0,STARLINK-4044,PAYLOAD,2024-03-01 03:58:57,15.08840019,9.89e-05,53.2161,229.4843,75.3333,284.7768,-7.8875e-05,-1.543e-05,0.0,0 STARLINK-4044,1 52662U 22053G   24061.16594568 -.00001543  00000-0 -78875-4 0  9994,2 52662  53.2161 229.4843 0000989  75.3333 284.7768 15.08840019 99559,6917.88,95.438,540.43,539.061,0.0
52662.0,STARLINK-4044,PAYLOAD,2024-03-01 16:42:03,15.0883391,9.73e-05,53.2162,227.1056,87.0547,273.0556,-5.6752e-05,-1.191e-05,0.0,0 STARLINK-4044,1 52662U 22053G   24061.69587098 -.00001191  00000-0 -56752-4 0  9991,2 52662  53.2162 227.1056 0000973  87.0547 273.0556 15.08833910 99638,6917.899,95.438,540.437,539.091,0.0
52662.0,STARLINK-4044,PAYLOAD,2024-03-02 18:08:12,15.08850447,0.0001023,53.2172,222.3472,76.417,283.6936,0.00015912,2.246e-05,0.0,0 STARLINK-4044,1 52662U 22053G   24062.75570347  .00002246  00000-0  15912-3 0  9990,2 52662  53.2172 222.3472 0001023  76.4170 283.6936 15.08850447 99799,6917.848,95.437,540.421,539.006,0.0
52662.0,STARLINK-4044,PAYLOAD,2024-03-03 03:40:32,15.08842116,0.0001036,53.2166,220.563,82.0328,278.0782,0.0001388,1.922e-05,0.0,0 STARLINK-4044,1 52662U 22053G   24063.15314855  .00001922  00000-0  13880-3 0  9997,2 52662  53.2166 220.5630 0001036  82.0328 278.0782 15.08842116 99858,6917.874,95.437,540.456,539.022,0.0
52662.0,STARLINK-4044,PAYLOAD,2024-03-03 14:48:14,15.08836748,0.0001112,53.2173,218.4809,85.6715,274.4404,0.00013134,1.803e-05,0.0,0 STARLINK-4044,1 52662U 22053G   24063.61683385  .00001803  00000-0  13134-3 0  9995,2 52662  53.2173 218.4809 0001112  85.6715 274.4404 15.08836748 99927,6917.89,95.438,540.525,538.986,0.0
52662.0,STARLINK-4044,PAYLOAD,2024-03-03 17:59:00,15.08843067,0.0001099,53.2173,217.8859,82.9124,277.1993,9.2337e-05,1.182e-05,0.0,0 STARLINK-4044,1 52662U 22053G   24063.74931071  .00001182  00000-0  92337-4 0  9990,2 52662  53.2173 217.8859 0001099  82.9124 277.1993 15.08843067 99940,6917.871,95.437,540.496,538.976,0.0
52662.0,STARLINK-4044,PAYLOAD,2024-03-04 14:39:00,15.08850421,0.0001007,53.2159,214.0194,90.8957,269.215,7.1174e-05,8.45e-06,0.0,0 STARLINK-4044,1 52662U 22053G   24064.61042197  .00000845  00000-0  71174-4 0  9990,2 52662  53.2159 214.0194 0001007  90.8957 269.2150 15.08850421100072,6917.849,95.437,540.41,539.017,0.0
52662.0,STARLINK-4044,PAYLOAD,2024-03-04 16:14:23,15.08852554,0.0001006,53.216,213.7207,95.4613,264.6494,0.00010249,1.344e-05,0.0,0 STARLINK-4044,1 52662U 22053G   24064.67666021  .00001344  00000-0  10249-3 0  9994,2 52662  53.2160 213.7207 0001006  95.4613 264.6494 15.08852554100084,6917.842,95.437,540.403,539.011,0.0
52662.0,STARLINK-4044,PAYLOAD,2024-03-05 14:29:48,15.08826256,0.0001045,53.216,209.559,91.8468,268.2644,-0.00011769,-2.16e-05,0.0,0 STARLINK-4044,1 52662U 22053G   24065.60403317 -.00002160  00000-0 -11769-3 0  9992,2 52662  53.2160 209.5590 0001045  91.8468 268.2644 15.08826256100226,6917.922,95.438,540.51,539.064,0.0
52662.0,STARLINK-4044,PAYLOAD,2024-03-05 16:05:11,15.08828499,0.000108,53.2165,209.2612,99.3389,260.7725,-0.00018273,-3.194e-05,0.0,0 STARLINK-4044,1 52662U 22053G   24065.67027214 -.00003194  00000-0 -18273-3 0  9992,2 52662  53.2165 209.2612 0001080  99.3389 260.7725 15.08828499100236,6917.916,95.438,540.528,539.033,0.0
52662.0,STARLINK-4044,PAYLOAD,2024-03-06 09:34:26,15.08833566,0.0001147,53.2175,205.9915,100.2737,259.8385,2.2575e-05,7.1e-07,0.0,0 STARLINK-4044,1 52662U 22053G   24066.39891366  .00000071  00000-0  22575-4 0  9999,2 52662  53.2175 205.9915 0001147 100.2737 259.8385 15.08833566100343,6917.9,95.438,540.559,538.972,0.0
52662.0,STARLINK-4044,PAYLOAD,2024-03-06 14:20:35,15.08836805,0.0001267,53.2165,205.0989,101.7396,258.3739,0.00015419,2.167e-05,0.0,0 STARLINK-4044,1 52662U 22053G   24066.59763368  .00002167  00000-0  15419-3 0  9997,2 52662  53.2165 205.0989 0001267 101.7396 258.3739 15.08836805100373,6917.89,95.438,540.632,538.879,0.0
52662.0,STARLINK-4044,PAYLOAD,2024-03-07 14:11:23,15.08836654,0.0001233,53.2161,200.6372,90.9787,269.1347,0.00022382,3.276e-05,0.0,0 STARLINK-4044,1 52662U 22053G   24067.59124163  .00003276  00000-0  22382-3 0  9991,2 52662  53.2161 200.6372 0001233  90.9787 269.1347 15.08836654100526,6917.891,95.438,540.609,538.903,0.0
52662.0,STARLINK-4044,PAYLOAD,2024-03-08 12:26:47,15.08840599,0.0001254,53.2166,196.4746,79.8299,280.2835,0.00014433,2.01e-05,0.0,0 STARLINK-4044,1 52662U 22053G   24068.51860228  .00002010  00000-0  14433-3 0  9996,2 52662  53.2166 196.4746 0001254  79.8299 280.2835 15.08840599100669,6917.879,95.438,540.611,538.876,0.0
52662.0,STARLINK-4044,PAYLOAD,2024-03-09 01:09:51,15.0885079,0.0001291,53.2169,194.0983,96.9133,263.2006,0.00030067,4.502e-05,0.0,0 STARLINK-4044,1 52662U 22053G   24069.04851645  .00004502  00000-0  30067-3 0  9997,2 52662  53.2169 194.0983 0001291  96.9133 263.2006 15.08850790100741,6917.847,95.437,540.606,538.819,0.0
52662.0,STARLINK-4044,PAYLOAD,2024-03-09 12:17:34,15.08837658,0.0001427,53.2166,192.016,85.5491,274.5664,5.8717e-05,6.47e-06,0.0,0 STARLINK-4044,1 52662U 22053G   24069.51220221  .00000647  00000-0  58717-4 0  9998,2 52662  53.2166 192.0160 0001427  85.5491 274.5664 15.08837658100816,6917.888,95.438,540.74,538.765,0.0
52662.0,STARLINK-4044,PAYLOAD,2024-03-09 17:03:43,15.08840338,0.0001752,53.2168,191.1234,82.4153,277.7038,0.00010007,1.305e-05,0.0,0 STARLINK-4044,1 52662U 22053G   24069.71092256  .00001305  00000-0  10007-3 0  9996,2 52662  53.2168 191.1234 0001752  82.4153 277.7038 15.08840338100844,6917.879,95.438,540.956,538.532,0.0
52662.0,STARLINK-4044,PAYLOAD,2024-03-10 12:08:21,15.08826803,0.0001474,53.2165,187.5528,102.3057,257.81,-0.00015832,-2.806e-05,0.0,0 STARLINK-4044,1 52662U 22053G   24070.50580653 -.00002806  00000-0 -15832-3 0  9998,2 52662  53.2165 187.5528 0001474 102.3057 257.8100 15.08826803100965,6917.921,95.438,540.805,538.766,0.0
52662.0,STARLINK-4044,PAYLOAD,2024-03-10 16:54:31,15.08830171,0.0001702,53.2163,186.6613,89.4998,270.619,-4.5658e-05,-1.014e-05,0.0,0 STARLINK-4044,1 52662U 22053G   24070.70452870 -.00001014  00000-0 -45658-4 0  9999,2 52662  53.2163 186.6613 0001702  89.4998 270.6190 15.08830171100999,6917.91,95.438,540.953,538.598,0.0
